{
  "type": "FeatureCollection",
  "features": [
    {
      "type": "Feature",
      "properties": {
        "norad_id": 33376,
        "name": "GALAXY 19 (G-19)",
        "group": "intelsat",
        "lat": 0.019707688703067845,
        "lon": -31.016999839431154,
        "alt_km": 35781.29960553354,
        "timestamp": "2025-12-15T22:44:28.591458+00:00",
        "meta_object_name": "GALAXY 19 (G-19)",
        "meta_object_id": "2008-045A",
        "meta_epoch": "2025-12-15T08:01:38.431776",
        "meta_mean_motion": 1.00271236,
        "meta_eccentricity": 0.00025834,
        "meta_inclination": 0.0281,
        "meta_ra_of_asc_node": 276.2802,
        "meta_arg_of_pericenter": 349.6733,
        "meta_mean_anomaly": 201.7024,
        "meta_ephemeris_type": 0,
        "meta_classification_type": "U",
        "meta_norad_cat_id": 33376,
        "meta_element_set_no": 999,
        "meta_rev_at_epoch": 6306,
        "meta_bstar": 0,
        "meta_mean_motion_dot": -1.18e-06,
        "meta_mean_motion_ddot": 0,
        "tle_line1": "1 33376U 08045A   25349.33447259 -.00000118  00000+0  00000+0 0  9998",
        "tle_line2": "2 33376   0.0281 276.2802 0002583 349.6733 201.7024  1.00271236 63068"
      },
      "geometry": {
        "type": "Point",
        "coordinates": [
          -31.016999839431154,
          0.019707688703067845
        ]
      }
    },
    {
      "type": "Feature",
      "properties": {
        "norad_id": 35493,
        "name": "FM-5",
        "group": "intelsat",
        "lat": 0.019359431708973585,
        "lon": -20.188760308992855,
        "alt_km": 35789.71306450317,
        "timestamp": "2025-12-15T22:44:28.591472+00:00",
        "meta_object_name": "FM-5",
        "meta_object_id": "2009-034A",
        "meta_epoch": "2025-12-15T08:19:38.704800",
        "meta_mean_motion": 1.00271556,
        "meta_eccentricity": 8.439e-05,
        "meta_inclination": 0.0212,
        "meta_ra_of_asc_node": 288.9779,
        "meta_arg_of_pericenter": 226.6098,
        "meta_mean_anomaly": 327.4365,
        "meta_ephemeris_type": 0,
        "meta_classification_type": "U",
        "meta_norad_cat_id": 35493,
        "meta_element_set_no": 999,
        "meta_rev_at_epoch": 4480,
        "meta_bstar": 0,
        "meta_mean_motion_dot": -1.79e-06,
        "meta_mean_motion_ddot": 0,
        "tle_line1": "1 35493U 09034A   25349.34697575 -.00000179  00000+0  00000+0 0  9995",
        "tle_line2": "2 35493   0.0212 288.9779 0000843 226.6098 327.4365  1.00271556 44802"
      },
      "geometry": {
        "type": "Point",
        "coordinates": [
          -20.188760308992855,
          0.019359431708973585
        ]
      }
    },
    {
      "type": "Feature",
      "properties": {
        "norad_id": 36097,
        "name": "INTELSAT 14 (IS-14)",
        "group": "intelsat",
        "lat": 0.001598992672342031,
        "lon": 20.983772614449155,
        "alt_km": 35789.46982965365,
        "timestamp": "2025-12-15T22:44:28.591487+00:00",
        "meta_object_name": "INTELSAT 14 (IS-14)",
        "meta_object_id": "2009-064A",
        "meta_epoch": "2025-12-15T04:36:51.131808",
        "meta_mean_motion": 1.00271564,
        "meta_eccentricity": 0.00024,
        "meta_inclination": 0.0226,
        "meta_ra_of_asc_node": 48.9766,
        "meta_arg_of_pericenter": 223.4866,
        "meta_mean_anomaly": 195.8561,
        "meta_ephemeris_type": 0,
        "meta_classification_type": "U",
        "meta_norad_cat_id": 36097,
        "meta_element_set_no": 999,
        "meta_rev_at_epoch": 5876,
        "meta_bstar": 0,
        "meta_mean_motion_dot": -2.53e-06,
        "meta_mean_motion_ddot": 0,
        "tle_line1": "1 36097U 09064A   25349.19225847 -.00000253  00000+0  00000+0 0  9994",
        "tle_line2": "2 36097   0.0226  48.9766 0002400 223.4866 195.8561  1.00271564 58761"
      },
      "geometry": {
        "type": "Point",
        "coordinates": [
          20.983772614449155,
          0.001598992672342031
        ]
      }
    },
    {
      "type": "Feature",
      "properties": {
        "norad_id": 36106,
        "name": "INTELSAT 15 (IS-15)",
        "group": "intelsat",
        "lat": -0.0063060989991132015,
        "lon": 151.08688538756167,
        "alt_km": 35791.106082976534,
        "timestamp": "2025-12-15T22:44:28.591500+00:00",
        "meta_object_name": "INTELSAT 15 (IS-15)",
        "meta_object_id": "2009-067A",
        "meta_epoch": "2025-12-15T06:56:30.257376",
        "meta_mean_motion": 1.00272007,
        "meta_eccentricity": 0.00022201,
        "meta_inclination": 0.0128,
        "meta_ra_of_asc_node": 308.4434,
        "meta_arg_of_pericenter": 325.2607,
        "meta_mean_anomaly": 359.7734,
        "meta_ephemeris_type": 0,
        "meta_classification_type": "U",
        "meta_norad_cat_id": 36106,
        "meta_element_set_no": 999,
        "meta_rev_at_epoch": 3938,
        "meta_bstar": 0,
        "meta_mean_motion_dot": -1.64e-06,
        "meta_mean_motion_ddot": 0,
        "tle_line1": "1 36106U 09067A   25349.28923909 -.00000164  00000+0  00000+0 0  9993",
        "tle_line2": "2 36106   0.0128 308.4434 0002220 325.2607 359.7734  1.00272007 39386"
      },
      "geometry": {
        "type": "Point",
        "coordinates": [
          151.08688538756167,
          -0.0063060989991132015
        ]
      }
    },
    {
      "type": "Feature",
      "properties": {
        "norad_id": 36131,
        "name": "DIRECTV 12",
        "group": "intelsat",
        "lat": -0.023102611401087852,
        "lon": -36.76640619123444,
        "alt_km": 35784.4308709103,
        "timestamp": "2025-12-15T22:44:28.591512+00:00",
        "meta_object_name": "DIRECTV 12",
        "meta_object_id": "2009-075A",
        "meta_epoch": "2025-12-15T08:01:38.431776",
        "meta_mean_motion": 1.00271984,
        "meta_eccentricity": 5.577e-05,
        "meta_inclination": 0.0478,
        "meta_ra_of_asc_node": 144.9649,
        "meta_arg_of_pericenter": 224.7153,
        "meta_mean_anomaly": 92.2556,
        "meta_ephemeris_type": 0,
        "meta_classification_type": "U",
        "meta_norad_cat_id": 36131,
        "meta_element_set_no": 999,
        "meta_rev_at_epoch": 4471,
        "meta_bstar": 0,
        "meta_mean_motion_dot": -8.2e-07,
        "meta_mean_motion_ddot": 0,
        "tle_line1": "1 36131U 09075A   25349.33447259 -.00000082  00000+0  00000+0 0  9994",
        "tle_line2": "2 36131   0.0478 144.9649 0000557 224.7153  92.2556  1.00271984 44710"
      },
      "geometry": {
        "type": "Point",
        "coordinates": [
          -36.76640619123444,
          -0.023102611401087852
        ]
      }
    },
    {
      "type": "Feature",
      "properties": {
        "norad_id": 36397,
        "name": "INTELSAT 16 (IS-16)",
        "group": "intelsat",
        "lat": 0.012964583633915241,
        "lon": -10.220796875988059,
        "alt_km": 35785.2026137934,
        "timestamp": "2025-12-15T22:44:28.591525+00:00",
        "meta_object_name": "INTELSAT 16 (IS-16)",
        "meta_object_id": "2010-006A",
        "meta_epoch": "2025-12-15T06:10:34.654656",
        "meta_mean_motion": 1.00271501,
        "meta_eccentricity": 0.00019374,
        "meta_inclination": 0.0114,
        "meta_ra_of_asc_node": 320.417,
        "meta_arg_of_pericenter": 306.5663,
        "meta_mean_anomaly": 193.6311,
        "meta_ephemeris_type": 0,
        "meta_classification_type": "U",
        "meta_norad_cat_id": 36397,
        "meta_element_set_no": 999,
        "meta_rev_at_epoch": 5781,
        "meta_bstar": 0,
        "meta_mean_motion_dot": -2.24e-06,
        "meta_mean_motion_ddot": 0,
        "tle_line1": "1 36397U 10006A   25349.25734554 -.00000224  00000+0  00000+0 0  9990",
        "tle_line2": "2 36397   0.0114 320.4170 0001937 306.5663 193.6311  1.00271501 57814"
      },
      "geometry": {
        "type": "Point",
        "coordinates": [
          -10.220796875988059,
          0.012964583633915241
        ]
      }
    },
    {
      "type": "Feature",
      "properties": {
        "norad_id": 37185,
        "name": "XM-5",
        "group": "intelsat",
        "lat": 0.02932854095218255,
        "lon": -49.22815426740056,
        "alt_km": 35793.65711338212,
        "timestamp": "2025-12-15T22:44:28.591537+00:00",
        "meta_object_name": "XM-5",
        "meta_object_id": "2010-053A",
        "meta_epoch": "2025-12-15T00:53:38.487264",
        "meta_mean_motion": 1.0027191,
        "meta_eccentricity": 0.00019003,
        "meta_inclination": 0.0635,
        "meta_ra_of_asc_node": 272.1788,
        "meta_arg_of_pericenter": 235.4435,
        "meta_mean_anomaly": 194.5481,
        "meta_ephemeris_type": 0,
        "meta_classification_type": "U",
        "meta_norad_cat_id": 37185,
        "meta_element_set_no": 999,
        "meta_rev_at_epoch": 5563,
        "meta_bstar": 0,
        "meta_mean_motion_dot": -3e-08,
        "meta_mean_motion_ddot": 0,
        "tle_line1": "1 37185U 10053A   25349.03725101 -.00000003  00000+0  00000+0 0  9997",
        "tle_line2": "2 37185   0.0635 272.1788 0001900 235.4435 194.5481  1.00271910 55633"
      },
      "geometry": {
        "type": "Point",
        "coordinates": [
          -49.22815426740056,
          0.02932854095218255
        ]
      }
    }
  ]
}